[{"OBJECT_NAME":"STARLINK-4467","OBJECT_ID":"2022-105AQ","EPOCH":"2026-03-09T15:07:27.381792","MEAN_MOTION":15.0125641,"ECCENTRICITY":0.0002534,"INCLINATION":97.6031,"RA_OF_ASC_NODE":310.2032,"ARG_OF_PERICENTER":167.742,"MEAN_ANOMALY":192.3866,"EPHEMERIS_TYPE":0,"CLASSIFICATION_TYPE":"U","NORAD_CAT_ID":53686,"ELEMENT_SET_NO":999,"REV_AT_EPOCH":19323,"BSTAR":0.00051511,"MEAN_MOTION_DOT":6.564e-5,"MEAN_MOTION_DDOT":0},{"OBJECT_NAME":"DEORBITSAIL","OBJECT_ID":"2015-032E","EPOCH":"2026-03-09T13:39:47.460384","MEAN_MOTION":15.02284863,"ECCENTRICITY":0.0012066,"INCLINATION":97.5981,"RA_OF_ASC_NODE":287.3228,"ARG_OF_PERICENTER":211.0438,"MEAN_ANOMALY":149.0075,"EPHEMERIS_TYPE":0,"CLASSIFICATION_TYPE":"U","NORAD_CAT_ID":40719,"ELEMENT_SET_NO":999,"REV_AT_EPOCH":57628,"BSTAR":0.0007398,"MEAN_MOTION_DOT":9.73e-5,"MEAN_MOTION_DDOT":0}]
